[{"OBJECT_NAME":"STARLINK-36697","OBJECT_ID":"2026-025F","EPOCH":"2026-03-09T22:00:01.999584","MEAN_MOTION":15.75205302,"ECCENTRICITY":8.163e-5,"INCLINATION":97.2845,"RA_OF_ASC_NODE":180.599,"ARG_OF_PERICENTER":93.1709,"MEAN_ANOMALY":196.6132,"EPHEMERIS_TYPE":0,"CLASSIFICATION_TYPE":"U","NORAD_CAT_ID":67698,"ELEMENT_SET_NO":999,"REV_AT_EPOCH":584,"BSTAR":-0.00020832455,"MEAN_MOTION_DOT":-0.00031109,"MEAN_MOTION_DDOT":0},{"OBJECT_NAME":"USA 124","OBJECT_ID":"1996-029F","EPOCH":"2026-03-09T04:54:59.012352","MEAN_MOTION":15.73809521,"ECCENTRICITY":0.0175574,"INCLINATION":63.264,"RA_OF_ASC_NODE":22.5124,"ARG_OF_PERICENTER":82.7151,"MEAN_ANOMALY":279.3906,"EPHEMERIS_TYPE":0,"CLASSIFICATION_TYPE":"U","NORAD_CAT_ID":23937,"ELEMENT_SET_NO":999,"REV_AT_EPOCH":9942,"BSTAR":0.00078971903,"MEAN_MOTION_DOT":0.00308048,"MEAN_MOTION_DDOT":3.6672726e-5}]
